[{"OBJECT_NAME":"STARLINK-5341","OBJECT_ID":"2023-010U","EPOCH":"2026-03-09T22:30:44.851104","MEAN_MOTION":14.98322209,"ECCENTRICITY":0.00023398,"INCLINATION":70.0024,"RA_OF_ASC_NODE":3.9794,"ARG_OF_PERICENTER":273.4777,"MEAN_ANOMALY":86.6114,"EPHEMERIS_TYPE":0,"CLASSIFICATION_TYPE":"U","NORAD_CAT_ID":55287,"ELEMENT_SET_NO":999,"REV_AT_EPOCH":17379,"BSTAR":0.00024384585,"MEAN_MOTION_DOT":2.817e-5,"MEAN_MOTION_DDOT":0},{"OBJECT_NAME":"FENGYUN 1C DEB","OBJECT_ID":"1999-025AVN","EPOCH":"2026-03-09T06:31:52.647168","MEAN_MOTION":14.79109319,"ECCENTRICITY":0.02015641,"INCLINATION":98.3743,"RA_OF_ASC_NODE":183.7423,"ARG_OF_PERICENTER":262.0182,"MEAN_ANOMALY":126.1893,"EPHEMERIS_TYPE":0,"CLASSIFICATION_TYPE":"U","NORAD_CAT_ID":30828,"ELEMENT_SET_NO":999,"REV_AT_EPOCH":99935,"BSTAR":0.0012364743,"MEAN_MOTION_DOT":0.00012875,"MEAN_MOTION_DDOT":0}]
